[{"OBJECT_NAME":"GAOFEN-14 01","OBJECT_ID":"2020-092A","EPOCH":"2026-03-09T23:18:15.156000","MEAN_MOTION":15.25725011,"ECCENTRICITY":0.0008015,"INCLINATION":97.4817,"RA_OF_ASC_NODE":139.2507,"ARG_OF_PERICENTER":138.8844,"MEAN_ANOMALY":221.2999,"EPHEMERIS_TYPE":0,"CLASSIFICATION_TYPE":"U","NORAD_CAT_ID":47231,"ELEMENT_SET_NO":999,"REV_AT_EPOCH":29270,"BSTAR":0.00022250672,"MEAN_MOTION_DOT":5.605e-5,"MEAN_MOTION_DDOT":0},{"OBJECT_NAME":"STARLINK-30165","OBJECT_ID":"2023-107A","EPOCH":"2026-03-09T03:47:33.839520","MEAN_MOTION":15.26736421,"ECCENTRICITY":0.00014984,"INCLINATION":42.9999,"RA_OF_ASC_NODE":339.2931,"ARG_OF_PERICENTER":275.8397,"MEAN_ANOMALY":84.2284,"EPHEMERIS_TYPE":0,"CLASSIFICATION_TYPE":"U","NORAD_CAT_ID":57457,"ELEMENT_SET_NO":999,"REV_AT_EPOCH":14505,"BSTAR":7.0020691e-5,"MEAN_MOTION_DOT":1.619e-5,"MEAN_MOTION_DDOT":0}]
